{"type": "FeatureCollection", "features": [ {"type": "Feature", "properties": {"norad_id": 28376, "name": "AURA", "group": "resource", "lat": 75.35189630224245, "lon": 139.3708188921854, "alt_km": 682.3731556741031, "timestamp": "2025-12-01T03:58:49.206887+00:00", "meta": {"OBJECT_NAME": "AURA", "OBJECT_ID": "2004-026A", "EPOCH": "2025-11-30T19:17:45.210336", "MEAN_MOTION": 14.60899873, "ECCENTRICITY": 0.0001059, "INCLINATION": 98.3166, "RA_OF_ASC_NODE": 284.9766, "ARG_OF_PERICENTER": 89.238, "MEAN_ANOMALY": 270.8941, "EPHEMERIS_TYPE": 0, "CLASSIFICATION_TYPE": "U", "NORAD_CAT_ID": 28376, "ELEMENT_SET_NO": 999, "REV_AT_EPOCH": 13724, "BSTAR": 0.00025275, "MEAN_MOTION_DOT": 1.189e-05, "MEAN_MOTION_DDOT": 0, "GROUP": "resource"}, "tle": {"line1": "1 28376U 04026A   25334.80399549  .00001189  00000+0  25275-3 0  9994", "line2": "2 28376  98.3166 284.9766 0001059  89.2380 270.8941 14.60899873137241"}}, "geometry": {"type": "Point", "coordinates": [139.3708188921854, 75.35189630224245]}}, {"type": "Feature", "properties": {"norad_id": 28649, "name": "IRS-P5 (CARTOSAT-1)", "group": "resource", "lat": 9.237127038797162, "lon": -176.67106777756635, "alt_km": 599.2229880600744, "timestamp": "2025-12-01T03:58:49.206900+00:00", "meta": {"OBJECT_NAME": "IRS-P5 (CARTOSAT-1)", "OBJECT_ID": "2005-017A", "EPOCH": "2025-11-30T19:09:38.683296", "MEAN_MOTION": 14.90337681, "ECCENTRICITY": 0.0001919, "INCLINATION": 97.5514, "RA_OF_ASC_NODE": 1.7415, "ARG_OF_PERICENTER": 56.0668, "MEAN_ANOMALY": 304.0733, "EPHEMERIS_TYPE": 0, "CLASSIFICATION_TYPE": "U", "NORAD_CAT_ID": 28649, "ELEMENT_SET_NO": 999, "REV_AT_EPOCH": 11426, "BSTAR": 0.0001529, "MEAN_MOTION_DOT": 1.434e-05, "MEAN_MOTION_DDOT": 0, "GROUP": "resource"}, "tle": {"line1": "1 28649U 05017A   25334.79836439  .00001434  00000+0  15290-3 0  9999", "line2": "2 28649  97.5514   1.7415 0001919  56.0668 304.0733 14.90337681114267"}}, "geometry": {"type": "Point", "coordinates": [-176.67106777756635, 9.237127038797162]}}, {"type": "Feature", "properties": {"norad_id": 28893, "name": "SINAH 1", "group": "resource", "lat": -2.6623999763755046, "lon": -76.69439148465922, "alt_km": 673.6316251529979, "timestamp": "2025-12-01T03:58:49.206912+00:00", "meta": {"OBJECT_NAME": "SINAH 1", "OBJECT_ID": "2005-043D", "EPOCH": "2025-11-30T18:56:50.227008", "MEAN_MOTION": 14.63939992, "ECCENTRICITY": 0.0014668, "INCLINATION": 98.2598, "RA_OF_ASC_NODE": 103.3154, "ARG_OF_PERICENTER": 173.075, "MEAN_ANOMALY": 187.0658, "EPHEMERIS_TYPE": 0, "CLASSIFICATION_TYPE": "U", "NORAD_CAT_ID": 28893, "ELEMENT_SET_NO": 999, "REV_AT_EPOCH": 7149, "BSTAR": 0.00010936, "MEAN_MOTION_DOT": 5.24e-06, "MEAN_MOTION_DDOT": 0, "GROUP": "resource"}, "tle": {"line1": "1 28893U 05043D   25334.78947022  .00000524  00000+0  10936-3 0  9990", "line2": "2 28893  98.2598 103.3154 0014668 173.0750 187.0658 14.63939992 71499"}}, "geometry": {"type": "Point", "coordinates": [-76.69439148465922, -2.6623999763755046]}}, {"type": "Feature", "properties": {"norad_id": 29079, "name": "EROS B", "group": "resource", "lat": -81.59693096045734, "lon": -149.65875830955403, "alt_km": 382.1418439229319, "timestamp": "2025-12-01T03:58:49.206924+00:00", "meta": {"OBJECT_NAME": "EROS B", "OBJECT_ID": "2006-014A", "EPOCH": "2025-11-30T20:42:14.141088", "MEAN_MOTION": 15.63850773, "ECCENTRICITY": 0.0002746, "INCLINATION": 97.3485, "RA_OF_ASC_NODE": 90.911, "ARG_OF_PERICENTER": 231.6615, "MEAN_ANOMALY": 128.4397, "EPHEMERIS_TYPE": 0, "CLASSIFICATION_TYPE": "U", "NORAD_CAT_ID": 29079, "ELEMENT_SET_NO": 999, "REV_AT_EPOCH": 8894, "BSTAR": 0.001465, "MEAN_MOTION_DOT": 0.00139285, "MEAN_MOTION_DDOT": 0, "GROUP": "resource"}, "tle": {"line1": "1 29079U 06014A   25334.86266367  .00139285  00000+0  14650-2 0  9994", "line2": "2 29079  97.3485  90.9110 0002746 231.6615 128.4397 15.63850773 88946"}}, "geometry": {"type": "Point", "coordinates": [-149.65875830955403, -81.59693096045734]}}, {"type": "Feature", "properties": {"norad_id": 29228, "name": "RESURS-DK 1", "group": "resource", "lat": -55.40321694824812, "lon": -16.250733814129628, "alt_km": 531.5270688571682, "timestamp": "2025-12-01T03:58:49.206934+00:00", "meta": {"OBJECT_NAME": "RESURS-DK 1", "OBJECT_ID": "2006-021A", "EPOCH": "2025-11-30T18:58:41.583648", "MEAN_MOTION": 15.12049956, "ECCENTRICITY": 0.000778, "INCLINATION": 69.9321, "RA_OF_ASC_NODE": 132.7138, "ARG_OF_PERICENTER": 267.2577, "MEAN_ANOMALY": 92.7698, "EPHEMERIS_TYPE": 0, "CLASSIFICATION_TYPE": "U", "NORAD_CAT_ID": 29228, "ELEMENT_SET_NO": 999, "REV_AT_EPOCH": 7257, "BSTAR": 0.00019886, "MEAN_MOTION_DOT": 3.322e-05, "MEAN_MOTION_DDOT": 0, "GROUP": "resource"}, "tle": {"line1": "1 29228U 06021A   25334.79075907  .00003322  00000+0  19886-3 0  9997", "line2": "2 29228  69.9321 132.7138 0007780 267.2577  92.7698 15.12049956 72572"}}, "geometry": {"type": "Point", "coordinates": [-16.250733814129628, -55.40321694824812]}}, {"type": "Feature", "properties": {"norad_id": 29268, "name": "ARIRANG-2 (KOMPSAT-2)", "group": "resource", "lat": 65.16088184915779, "lon": 146.91626584156637, "alt_km": 670.4926476140499, "timestamp": "2025-12-01T03:58:49.206945+00:00", "meta": {"OBJECT_NAME": "ARIRANG-2 (KOMPSAT-2)", "OBJECT_ID": "2006-031A", "EPOCH": "2025-11-30T20:03:39.664800", "MEAN_MOTION": 14.64476203, "ECCENTRICITY": 0.0014191, "INCLINATION": 97.8266, "RA_OF_ASC_NODE": 163.8888, "ARG_OF_PERICENTER": 348.3636, "MEAN_ANOMALY": 139.2723, "EPHEMERIS_TYPE": 0, "CLASSIFICATION_TYPE": "U", "NORAD_CAT_ID": 29268, "ELEMENT_SET_NO": 999, "REV_AT_EPOCH": 3244, "BSTAR": 8.3398e-05, "MEAN_MOTION_DOT": 3.97e-06, "MEAN_MOTION_DDOT": 0, "GROUP": "resource"}, "tle": {"line1": "1 29268U 06031A   25334.83587575  .00000397  00000+0  83398-4 0  9995", "line2": "2 29268  97.8266 163.8888 0014191 348.3636 139.2723 14.64476203 32445"}}, "geometry": {"type": "Point", "coordinates": [146.91626584156637, 65.16088184915779]}}, {"type": "Feature", "properties": {"norad_id": 29709, "name": "LAPAN-TUBSAT", "group": "resource", "lat": -19.716127981711843, "lon": 142.1502905238068, "alt_km": 617.0096789690278, "timestamp": "2025-12-01T03:58:49.206957+00:00", "meta": {"OBJECT_NAME": "LAPAN-TUBSAT", "OBJECT_ID": "2007-001A", "EPOCH": "2025-11-30T20:37:09.441984", "MEAN_MOTION": 14.85641251, "ECCENTRICITY": 0.0013546, "INCLINATION": 98.125, "RA_OF_ASC_NODE": 324.772, "ARG_OF_PERICENTER": 109.2226, "MEAN_ANOMALY": 251.0455, "EPHEMERIS_TYPE": 0, "CLASSIFICATION_TYPE": "U", "NORAD_CAT_ID": 29709, "ELEMENT_SET_NO": 999, "REV_AT_EPOCH": 2170, "BSTAR": 8.5488e-05, "MEAN_MOTION_DOT": 6.84e-06, "MEAN_MOTION_DDOT": 0, "GROUP": "resource"}, "tle": {"line1": "1 29709U 07001A   25334.85913706  .00000684  00000+0  85488-4 0  9995", "line2": "2 29709  98.1250 324.7720 0013546 109.2226 251.0455 14.85641251 21709"}}, "geometry": {"type": "Point", "coordinates": [142.1502905238068, -19.716127981711843]}}, {"type": "Feature", "properties": {"norad_id": 31113, "name": "HAIYANG-1B", "group": "resource", "lat": -20.445086728931788, "lon": 136.79147918394222, "alt_km": 800.5483527589276, "timestamp": "2025-12-01T03:58:49.206968+00:00", "meta": {"OBJECT_NAME": "HAIYANG-1B", "OBJECT_ID": "2007-010A", "EPOCH": "2025-11-30T16:58:41.964096", "MEAN_MOTION": 14.30958437, "ECCENTRICITY": 0.0014643, "INCLINATION": 98.3306, "RA_OF_ASC_NODE": 319.4833, "ARG_OF_PERICENTER": 71.1932, "MEAN_ANOMALY": 289.0838, "EPHEMERIS_TYPE": 0, "CLASSIFICATION_TYPE": "U", "NORAD_CAT_ID": 31113, "ELEMENT_SET_NO": 999, "REV_AT_EPOCH": 97224, "BSTAR": 6.6233e-05, "MEAN_MOTION_DOT": 1.33e-06, "MEAN_MOTION_DDOT": 0, "GROUP": "resource"}, "tle": {"line1": "1 31113U 07010A   25334.70743014  .00000133  00000+0  66233-4 0  9990", "line2": "2 31113  98.3306 319.4833 0014643  71.1932 289.0838 14.30958437972248"}}, "geometry": {"type": "Point", "coordinates": [136.79147918394222, -20.445086728931788]}}, {"type": "Feature", "properties": {"norad_id": 31598, "name": "COSMO-SKYMED 1", "group": "resource", "lat": 78.64768030370759, "lon": 24.142148094788556, "alt_km": 572.0247681605297, "timestamp": "2025-12-01T03:58:49.206980+00:00", "meta": {"OBJECT_NAME": "COSMO-SKYMED 1", "OBJECT_ID": "2007-023A", "EPOCH": "2025-11-30T19:30:53.185248", "MEAN_MOTION": 14.95627947, "ECCENTRICITY": 0.0001569, "INCLINATION": 97.8849, "RA_OF_ASC_NODE": 160.1349, "ARG_OF_PERICENTER": 85.5535, "MEAN_ANOMALY": 274.5865, "EPHEMERIS_TYPE": 0, "CLASSIFICATION_TYPE": "U", "NORAD_CAT_ID": 31598, "ELEMENT_SET_NO": 999, "REV_AT_EPOCH": 12, "BSTAR": 0.00039567, "MEAN_MOTION_DOT": 4.338e-05, "MEAN_MOTION_DDOT": 0, "GROUP": "resource"}, "tle": {"line1": "1 31598U 07023A   25334.81311557  .00004338  00000+0  39567-3 0  9996", "line2": "2 31598  97.8849 160.1349 0001569  85.5535 274.5865 14.95627947   123"}}, "geometry": {"type": "Point", "coordinates": [24.142148094788556, 78.64768030370759]}}, {"type": "Feature", "properties": {"norad_id": 31698, "name": "TERRASAR-X", "group": "resource", "lat": -38.40501514452736, "lon": 154.76531218398878, "alt_km": 515.8750023185275, "timestamp": "2025-12-01T03:58:49.206990+00:00", "meta": {"OBJECT_NAME": "TERRASAR-X", "OBJECT_ID": "2007-026A", "EPOCH": "2025-11-30T15:57:17.341056", "MEAN_MOTION": 15.19145625, "ECCENTRICITY": 0.0001876, "INCLINATION": 97.4446, "RA_OF_ASC_NODE": 340.2214, "ARG_OF_PERICENTER": 82.8864, "MEAN_ANOMALY": 277.2584, "EPHEMERIS_TYPE": 0, "CLASSIFICATION_TYPE": "U", "NORAD_CAT_ID": 31698, "ELEMENT_SET_NO": 999, "REV_AT_EPOCH": 2308, "BSTAR": 8.1079e-05, "MEAN_MOTION_DOT": 1.636e-05, "MEAN_MOTION_DDOT": 0, "GROUP": "resource"}, "tle": {"line1": "1 31698U 07026A   25334.66478404  .00001636  00000+0  81079-4 0  9992", "line2": "2 31698  97.4446 340.2214 0001876  82.8864 277.2584 15.19145625 23084"}}, "geometry": {"type": "Point", "coordinates": [154.76531218398878, -38.40501514452736]}}]}